{"type":"FeatureCollection","features":[{"type":"Feature","properties":{"name":"India","NAME_EN":"India","ISO_A3":"IND","REGION_UN":"Asia","SUBREGION":"Southern Asia"},"geometry":{"type":"Polygon","coordinates":[[[68.0,23.0],[72.0,20.0],[77.0,8.0],[80.0,9.0],[88.0,21.0],[97.0,28.0],[92.0,35.0],[80.0,35.0],[68.0,23.0]]]}},{"type":"Feature","properties":{"name":"United States","NAME_EN":"United States","ISO_A3":"USA","REGION_UN":"Americas","SUBREGION":"Northern America"},"geometry":{"type":"Polygon","coordinates":[[[-125,49],[-67,49],[-67,25],[-125,25],[-125,49]]]}},{"type":"Feature","properties":{"name":"Brazil","NAME_EN":"Brazil","ISO_A3":"BRA","REGION_UN":"Americas","SUBREGION":"South America"},"geometry":{"type":"Polygon","coordinates":[[[-74,5],[-34,5],[-34,-34],[-74,-34],[-74,5]]]}},{"type":"Feature","properties":{"name":"United Kingdom","NAME_EN":"United Kingdom","ISO_A3":"GBR","REGION_UN":"Europe","SUBREGION":"Northern Europe"},"geometry":{"type":"Polygon","coordinates":[[[-8,59],[2,59],[2,50],[-8,50],[-8,59]]]}},{"type":"Feature","properties":{"name":"China","NAME_EN":"China","ISO_A3":"CHN","REGION_UN":"Asia","SUBREGION":"Eastern Asia"},"geometry":{"type":"Polygon","coordinates":[[[74,40],[134,40],[134,18],[74,18],[74,40]]]}}]}